<?xml version="1.0" encoding="UTF-8"?>
<ndm xmlns:xsi="http://www.w3.org/2001/XMLSchema-instance" xsi:noNamespaceSchemaLocation="https://sanaregistry.org/r/ndmxml_unqualified/ndmxml-2.0.0-master-2.0.xsd">
<omm id="CCSDS_OMM_VERS" version="2.0">
<header><CREATION_DATE/><ORIGINATOR/></header><body><segment><metadata><OBJECT_NAME>ORBCOMM FM33</OBJECT_NAME><OBJECT_ID>1999-065D</OBJECT_ID><CENTER_NAME>EARTH</CENTER_NAME><REF_FRAME>TEME</REF_FRAME><TIME_SYSTEM>UTC</TIME_SYSTEM><MEAN_ELEMENT_THEORY>SGP4</MEAN_ELEMENT_THEORY></metadata><data><meanElements><EPOCH>2024-08-10T22:36:56.830752</EPOCH><MEAN_MOTION>14.38082630</MEAN_MOTION><ECCENTRICITY>.0008182</ECCENTRICITY><INCLINATION>45.0297</INCLINATION><RA_OF_ASC_NODE>32.0410</RA_OF_ASC_NODE><ARG_OF_PERICENTER>292.1261</ARG_OF_PERICENTER><MEAN_ANOMALY>67.8719</MEAN_ANOMALY></meanElements><tleParameters><EPHEMERIS_TYPE>0</EPHEMERIS_TYPE><CLASSIFICATION_TYPE>U</CLASSIFICATION_TYPE><NORAD_CAT_ID>25983</NORAD_CAT_ID><ELEMENT_SET_NO>999</ELEMENT_SET_NO><REV_AT_EPOCH>29144</REV_AT_EPOCH><BSTAR>.16232E-2</BSTAR><MEAN_MOTION_DOT>.4826E-4</MEAN_MOTION_DOT><MEAN_MOTION_DDOT>0</MEAN_MOTION_DDOT></tleParameters></data></segment></body></omm>
<omm id="CCSDS_OMM_VERS" version="2.0">
<header><CREATION_DATE/><ORIGINATOR/></header><body><segment><metadata><OBJECT_NAME>ORBCOMM FM36</OBJECT_NAME><OBJECT_ID>1999-065E</OBJECT_ID><CENTER_NAME>EARTH</CENTER_NAME><REF_FRAME>TEME</REF_FRAME><TIME_SYSTEM>UTC</TIME_SYSTEM><MEAN_ELEMENT_THEORY>SGP4</MEAN_ELEMENT_THEORY></metadata><data><meanElements><EPOCH>2024-08-11T09:28:51.246048</EPOCH><MEAN_MOTION>14.36017108</MEAN_MOTION><ECCENTRICITY>.0002688</ECCENTRICITY><INCLINATION>45.0385</INCLINATION><RA_OF_ASC_NODE>116.9716</RA_OF_ASC_NODE><ARG_OF_PERICENTER>172.6500</ARG_OF_PERICENTER><MEAN_ANOMALY>187.4388</MEAN_ANOMALY></meanElements><tleParameters><EPHEMERIS_TYPE>0</EPHEMERIS_TYPE><CLASSIFICATION_TYPE>U</CLASSIFICATION_TYPE><NORAD_CAT_ID>25984</NORAD_CAT_ID><ELEMENT_SET_NO>999</ELEMENT_SET_NO><REV_AT_EPOCH>29044</REV_AT_EPOCH><BSTAR>.18322E-2</BSTAR><MEAN_MOTION_DOT>.5236E-4</MEAN_MOTION_DOT><MEAN_MOTION_DDOT>0</MEAN_MOTION_DDOT></tleParameters></data></segment></body></omm>
<omm id="CCSDS_OMM_VERS" version="2.0">
<header><CREATION_DATE/><ORIGINATOR/></header><body><segment><metadata><OBJECT_NAME>ORBCOMM FM35</OBJECT_NAME><OBJECT_ID>1999-065F</OBJECT_ID><CENTER_NAME>EARTH</CENTER_NAME><REF_FRAME>TEME</REF_FRAME><TIME_SYSTEM>UTC</TIME_SYSTEM><MEAN_ELEMENT_THEORY>SGP4</MEAN_ELEMENT_THEORY></metadata><data><meanElements><EPOCH>2024-08-11T09:33:29.274336</EPOCH><MEAN_MOTION>14.35474416</MEAN_MOTION><ECCENTRICITY>.0003453</ECCENTRICITY><INCLINATION>45.0391</INCLINATION><RA_OF_ASC_NODE>119.9452</RA_OF_ASC_NODE><ARG_OF_PERICENTER>299.9820</ARG_OF_PERICENTER><MEAN_ANOMALY>60.0685</MEAN_ANOMALY></meanElements><tleParameters><EPHEMERIS_TYPE>0</EPHEMERIS_TYPE><CLASSIFICATION_TYPE>U</CLASSIFICATION_TYPE><NORAD_CAT_ID>25985</NORAD_CAT_ID><ELEMENT_SET_NO>999</ELEMENT_SET_NO><REV_AT_EPOCH>29043</REV_AT_EPOCH><BSTAR>.13043E-2</BSTAR><MEAN_MOTION_DOT>.3644E-4</MEAN_MOTION_DOT><MEAN_MOTION_DDOT>0</MEAN_MOTION_DDOT></tleParameters></data></segment></body></omm>
<omm id="CCSDS_OMM_VERS" version="2.0">
<header><CREATION_DATE/><ORIGINATOR/></header><body><segment><metadata><OBJECT_NAME>ORBCOMM FM34</OBJECT_NAME><OBJECT_ID>1999-065G</OBJECT_ID><CENTER_NAME>EARTH</CENTER_NAME><REF_FRAME>TEME</REF_FRAME><TIME_SYSTEM>UTC</TIME_SYSTEM><MEAN_ELEMENT_THEORY>SGP4</MEAN_ELEMENT_THEORY></metadata><data><meanElements><EPOCH>2024-08-10T21:11:45.920832</EPOCH><MEAN_MOTION>14.35455831</MEAN_MOTION><ECCENTRICITY>.0002961</ECCENTRICITY><INCLINATION>45.0383</INCLINATION><RA_OF_ASC_NODE>122.9251</RA_OF_ASC_NODE><ARG_OF_PERICENTER>238.9623</ARG_OF_PERICENTER><MEAN_ANOMALY>121.0934</MEAN_ANOMALY></meanElements><tleParameters><EPHEMERIS_TYPE>0</EPHEMERIS_TYPE><CLASSIFICATION_TYPE>U</CLASSIFICATION_TYPE><NORAD_CAT_ID>25986</NORAD_CAT_ID><ELEMENT_SET_NO>999</ELEMENT_SET_NO><REV_AT_EPOCH>29028</REV_AT_EPOCH><BSTAR>.12739E-2</BSTAR><MEAN_MOTION_DOT>.3555E-4</MEAN_MOTION_DOT><MEAN_MOTION_DDOT>0</MEAN_MOTION_DDOT></tleParameters></data></segment></body></omm>
<omm id="CCSDS_OMM_VERS" version="2.0">
<header><CREATION_DATE/><ORIGINATOR/></header><body><segment><metadata><OBJECT_NAME>ORBCOMM FM38</OBJECT_NAME><OBJECT_ID>2008-031A</OBJECT_ID><CENTER_NAME>EARTH</CENTER_NAME><REF_FRAME>TEME</REF_FRAME><TIME_SYSTEM>UTC</TIME_SYSTEM><MEAN_ELEMENT_THEORY>SGP4</MEAN_ELEMENT_THEORY></metadata><data><meanElements><EPOCH>2024-08-11T01:24:10.898208</EPOCH><MEAN_MOTION>14.78194025</MEAN_MOTION><ECCENTRICITY>.0005111</ECCENTRICITY><INCLINATION>48.4422</INCLINATION><RA_OF_ASC_NODE>350.1381</RA_OF_ASC_NODE><ARG_OF_PERICENTER>160.3681</ARG_OF_PERICENTER><MEAN_ANOMALY>199.7431</MEAN_ANOMALY></meanElements><tleParameters><EPHEMERIS_TYPE>0</EPHEMERIS_TYPE><CLASSIFICATION_TYPE>U</CLASSIFICATION_TYPE><NORAD_CAT_ID>33060</NORAD_CAT_ID><ELEMENT_SET_NO>999</ELEMENT_SET_NO><REV_AT_EPOCH>86880</REV_AT_EPOCH><BSTAR>.10097E-2</BSTAR><MEAN_MOTION_DOT>.7197E-4</MEAN_MOTION_DOT><MEAN_MOTION_DDOT>0</MEAN_MOTION_DDOT></tleParameters></data></segment></body></omm>
<omm id="CCSDS_OMM_VERS" version="2.0">
<header><CREATION_DATE/><ORIGINATOR/></header><body><segment><metadata><OBJECT_NAME>ORBCOMM FM41</OBJECT_NAME><OBJECT_ID>2008-031B</OBJECT_ID><CENTER_NAME>EARTH</CENTER_NAME><REF_FRAME>TEME</REF_FRAME><TIME_SYSTEM>UTC</TIME_SYSTEM><MEAN_ELEMENT_THEORY>SGP4</MEAN_ELEMENT_THEORY></metadata><data><meanElements><EPOCH>2024-08-10T21:02:45.608928</EPOCH><MEAN_MOTION>14.77911661</MEAN_MOTION><ECCENTRICITY>.0004113</ECCENTRICITY><INCLINATION>48.4458</INCLINATION><RA_OF_ASC_NODE>357.8396</RA_OF_ASC_NODE><ARG_OF_PERICENTER>145.8602</ARG_OF_PERICENTER><MEAN_ANOMALY>352.3417</MEAN_ANOMALY></meanElements><tleParameters><EPHEMERIS_TYPE>0</EPHEMERIS_TYPE><CLASSIFICATION_TYPE>U</CLASSIFICATION_TYPE><NORAD_CAT_ID>33061</NORAD_CAT_ID><ELEMENT_SET_NO>999</ELEMENT_SET_NO><REV_AT_EPOCH>86872</REV_AT_EPOCH><BSTAR>.9891E-3</BSTAR><MEAN_MOTION_DOT>.6998E-4</MEAN_MOTION_DOT><MEAN_MOTION_DDOT>0</MEAN_MOTION_DDOT></tleParameters></data></segment></body></omm>
<omm id="CCSDS_OMM_VERS" version="2.0">
<header><CREATION_DATE/><ORIGINATOR/></header><body><segment><metadata><OBJECT_NAME>ORBCOMM FM29</OBJECT_NAME><OBJECT_ID>2008-031C</OBJECT_ID><CENTER_NAME>EARTH</CENTER_NAME><REF_FRAME>TEME</REF_FRAME><TIME_SYSTEM>UTC</TIME_SYSTEM><MEAN_ELEMENT_THEORY>SGP4</MEAN_ELEMENT_THEORY></metadata><data><meanElements><EPOCH>2024-08-10T20:58:39.207360</EPOCH><MEAN_MOTION>14.77866830</MEAN_MOTION><ECCENTRICITY>.000595</ECCENTRICITY><INCLINATION>48.4410</INCLINATION><RA_OF_ASC_NODE>5.8859</RA_OF_ASC_NODE><ARG_OF_PERICENTER>140.7880</ARG_OF_PERICENTER><MEAN_ANOMALY>25.6418</MEAN_ANOMALY></meanElements><tleParameters><EPHEMERIS_TYPE>0</EPHEMERIS_TYPE><CLASSIFICATION_TYPE>U</CLASSIFICATION_TYPE><NORAD_CAT_ID>33062</NORAD_CAT_ID><ELEMENT_SET_NO>999</ELEMENT_SET_NO><REV_AT_EPOCH>86858</REV_AT_EPOCH><BSTAR>.1041E-2</BSTAR><MEAN_MOTION_DOT>.7369E-4</MEAN_MOTION_DOT><MEAN_MOTION_DDOT>0</MEAN_MOTION_DDOT></tleParameters></data></segment></body></omm>
<omm id="CCSDS_OMM_VERS" version="2.0">
<header><CREATION_DATE/><ORIGINATOR/></header><body><segment><metadata><OBJECT_NAME>ORBCOMM FM39</OBJECT_NAME><OBJECT_ID>2008-031D</OBJECT_ID><CENTER_NAME>EARTH</CENTER_NAME><REF_FRAME>TEME</REF_FRAME><TIME_SYSTEM>UTC</TIME_SYSTEM><MEAN_ELEMENT_THEORY>SGP4</MEAN_ELEMENT_THEORY></metadata><data><meanElements><EPOCH>2024-08-11T11:34:31.507968</EPOCH><MEAN_MOTION>14.76791804</MEAN_MOTION><ECCENTRICITY>.0006742</ECCENTRICITY><INCLINATION>48.4419</INCLINATION><RA_OF_ASC_NODE>24.2515</RA_OF_ASC_NODE><ARG_OF_PERICENTER>115.1271</ARG_OF_PERICENTER><MEAN_ANOMALY>245.0343</MEAN_ANOMALY></meanElements><tleParameters><EPHEMERIS_TYPE>0</EPHEMERIS_TYPE><CLASSIFICATION_TYPE>U</CLASSIFICATION_TYPE><NORAD_CAT_ID>33063</NORAD_CAT_ID><ELEMENT_SET_NO>999</ELEMENT_SET_NO><REV_AT_EPOCH>86839</REV_AT_EPOCH><BSTAR>.11065E-2</BSTAR><MEAN_MOTION_DOT>.7647E-4</MEAN_MOTION_DOT><MEAN_MOTION_DDOT>0</MEAN_MOTION_DDOT></tleParameters></data></segment></body></omm>

</ndm>
