ORBCOMM FM33            
1 25983U 99065D   24223.94232443  .00004826  00000+0  16232-2 0  9995
2 25983  45.0297  32.0410 0008182 292.1261  67.8719 14.38082630291441
ORBCOMM FM36            
1 25984U 99065E   24224.39503757  .00005236  00000+0  18322-2 0  9993
2 25984  45.0385 116.9716 0002688 172.6500 187.4388 14.36017108290440
ORBCOMM FM35            
1 25985U 99065F   24224.39825549  .00003644  00000+0  13043-2 0  9996
2 25985  45.0391 119.9452 0003453 299.9820  60.0685 14.35474416290430
ORBCOMM FM34            
1 25986U 99065G   24223.88317038  .00003555  00000+0  12739-2 0  9991
2 25986  45.0383 122.9251 0002961 238.9623 121.0934 14.35455831290288
ORBCOMM FM38            
1 33060U 08031A   24224.05845947  .00007197  00000+0  10097-2 0  9992
2 33060  48.4422 350.1381 0005111 160.3681 199.7431 14.78194025868807
ORBCOMM FM41            
1 33061U 08031B   24223.87691677  .00006998  00000+0  98910-3 0  9990
2 33061  48.4458 357.8396 0004113 145.8602 352.3417 14.77911661868723
ORBCOMM FM29            
1 33062U 08031C   24223.87406490  .00007369  00000+0  10410-2 0  9999
2 33062  48.4410   5.8859 0005950 140.7880  25.6418 14.77866830868580
ORBCOMM FM39            
1 33063U 08031D   24224.48230912  .00007647  00000+0  11065-2 0  9998
2 33063  48.4419  24.2515 0006742 115.1271 245.0343 14.76791804868395
